[{"OBJECT_NAME":"IRIDIUM 145","OBJECT_ID":"2018-030E","EPOCH":"2026-03-09T23:33:38.409120","MEAN_MOTION":14.34213927,"ECCENTRICITY":0.00019039,"INCLINATION":86.4013,"RA_OF_ASC_NODE":331.8973,"ARG_OF_PERICENTER":94.1139,"MEAN_ANOMALY":266.0275,"EPHEMERIS_TYPE":0,"CLASSIFICATION_TYPE":"U","NORAD_CAT_ID":43253,"ELEMENT_SET_NO":999,"REV_AT_EPOCH":41590,"BSTAR":0.00011521042,"MEAN_MOTION_DOT":3.42e-6,"MEAN_MOTION_DDOT":0},{"OBJECT_NAME":"SL-8 R\/B","OBJECT_ID":"1982-001B","EPOCH":"2026-03-09T22:02:04.151904","MEAN_MOTION":14.39875272,"ECCENTRICITY":0.00201713,"INCLINATION":74.0385,"RA_OF_ASC_NODE":272.6903,"ARG_OF_PERICENTER":286.04,"MEAN_ANOMALY":73.8533,"EPHEMERIS_TYPE":0,"CLASSIFICATION_TYPE":"U","NORAD_CAT_ID":13028,"ELEMENT_SET_NO":999,"REV_AT_EPOCH":31530,"BSTAR":0.00011682733,"MEAN_MOTION_DOT":3.41e-6,"MEAN_MOTION_DDOT":0}]
